STARLINK-31272          
1 59162U 24044L   26068.46157529 -.00000205  00000+0  20586-5 0  9991
2 59162  42.9999 108.0604 0001040 254.0222 106.0515 15.27575096113536
REAL                    
1 64875U 25154G   26068.72233414  .00022901  00000+0  82904-3 0  9994
2 64875  97.4133 137.2581 0001853 118.5876 241.5550 15.28408058 34830
