[{"OBJECT_NAME":"STARLINK-31272","OBJECT_ID":"2024-044L","EPOCH":"2026-03-09T11:04:40.105056","MEAN_MOTION":15.27575096,"ECCENTRICITY":0.00010403,"INCLINATION":42.9999,"RA_OF_ASC_NODE":108.0604,"ARG_OF_PERICENTER":254.0222,"MEAN_ANOMALY":106.0515,"EPHEMERIS_TYPE":0,"CLASSIFICATION_TYPE":"U","NORAD_CAT_ID":59162,"ELEMENT_SET_NO":999,"REV_AT_EPOCH":11353,"BSTAR":2.058611e-6,"MEAN_MOTION_DOT":-2.05e-6,"MEAN_MOTION_DDOT":0},{"OBJECT_NAME":"REAL","OBJECT_ID":"2025-154G","EPOCH":"2026-03-09T17:20:09.670560","MEAN_MOTION":15.28408058,"ECCENTRICITY":0.00018528,"INCLINATION":97.4133,"RA_OF_ASC_NODE":137.2581,"ARG_OF_PERICENTER":118.5876,"MEAN_ANOMALY":241.555,"EPHEMERIS_TYPE":0,"CLASSIFICATION_TYPE":"U","NORAD_CAT_ID":64875,"ELEMENT_SET_NO":999,"REV_AT_EPOCH":3483,"BSTAR":0.0008290401,"MEAN_MOTION_DOT":0.00022901,"MEAN_MOTION_DDOT":0}]
